OBJECT_NAME,OBJECT_ID,EPOCH,MEAN_MOTION,ECCENTRICITY,INCLINATION,RA_OF_ASC_NODE,ARG_OF_PERICENTER,MEAN_ANOMALY,EPHEMERIS_TYPE,CLASSIFICATION_TYPE,NORAD_CAT_ID,ELEMENT_SET_NO,REV_AT_EPOCH,BSTAR,MEAN_MOTION_DOT,MEAN_MOTION_DDOT,SEMIMAJOR_AXIS,SATELLITE_TYPE,ORBITAL_PERIOD,ORBITAL_PERIOD_HOURS,ALTITUDE,PERIGEE,APOGEE
ROBUSTA-3A (MEDITERRANEE),2024-128J,2024-12-30T18:05:23.034048,15.00669781,0.0031607,61.991,279.6135,9.7768,350.393,0,U,60243,999,2605,0.0016749,0.00021396,0.0,6942.966714016182,CubeSat,5757.432379587153,1.5992867721075426,571.9667140161819,6921.02207912319,6964.911348909173
PROMETHEUS 2-1,2016-067G,2025-01-01T00:24:11.695392,15.31633024,0.0009739,98.0906,197.7067,89.4729,270.7626,0,U,41854,999,44585,0.0020683,0.00063644,0.0,6849.076654471864,CubeSat,5641.041067156672,1.5669558519879645,478.07665447186355,6842.406338718074,6855.746970225653
ROBUSTA-1E (ENSO),2023-185J,2025-01-01T02:57:21.565728,15.37587317,0.0008571,97.3998,73.245,299.1586,60.88,0,U,58470,999,6039,0.00161,0.0005976,0.0,6831.383230897343,CubeSat,5619.196186565163,1.5608878296014341,460.3832308973433,6825.528052330141,6837.238409464545
TRITON-1,2013-066M,2025-01-01T01:31:56.260704,14.77223105,0.0097761,97.8422,279.0357,162.5977,197.8624,0,U,39427,999,59558,0.0010821,8.251e-05,0.0,7016.240170812453,CubeSat,5848.815090255011,1.6246708584041696,645.2401708124526,6947.648705278573,7084.831636346333
AEROCUBE 8D,2016-067E,2024-12-31T23:18:03.563712,15.13563753,0.0004699,98.1099,187.8853,147.5362,212.6157,0,U,41852,999,44525,0.0010781,0.00019303,0.0,6903.479330665541,CubeSat,5708.3851083723475,1.58566253010343,532.479330665541,6900.235385728061,6906.72327560302
NETSAT-4,2020-068U,2024-12-31T20:33:19.238688,15.23283557,0.0010504,97.8296,330.6897,48.3444,311.8689,0,U,46504,999,23417,0.001259,0.00029917,0.0,6874.081421040296,CubeSat,5671.960908718299,1.5755446968661941,503.08142104029594,6866.860885915635,6881.301956164957
ROBUSTA-3A (MEDITERRANEE),2024-128J,2024-12-30T18:05:23.034048,15.00669781,0.0031607,61.991,279.6135,9.7768,350.393,0,U,60243,999,2605,0.0016749,0.00021396,0.0,6942.966714016182,CubeSat,5757.432379587153,1.5992867721075426,571.9667140161819,6921.02207912319,6964.911348909173
NEE-02 KRYSAOR,2013-066AB,2024-12-31T06:35:09.636576,14.82715386,0.007175,97.843,301.3308,15.2986,345.0374,0,U,39441,999,59711,0.0009873,8.286e-05,0.0,6998.903064154119,CubeSat,5827.149883097904,1.6186527453049735,627.9030641541194,6948.685934668813,7049.1201936394245
TIGRISAT,2014-033AK,2024-12-31T21:13:57.387936,14.81404342,0.0053387,97.712,161.6716,19.8727,340.455,0,U,40043,999,56670,0.00081612,6.493e-05,0.0,7003.031811766011,CubeSat,5832.306915296837,1.6200852542491215,632.0318117660108,6965.644725832535,7040.4188976994865
BEESAT-1,2009-051C,2024-12-31T15:04:25.309344,14.60045994,0.0006696,98.4407,254.4097,80.7718,279.4238,0,U,35933,999,81142,0.0008501,4.037e-05,0.0,7071.162482078481,CubeSat,5917.625077362709,1.6437847437118636,700.1624820784809,7066.427631680481,7075.89733247648
SITRO-AIS 50,2024-039L,2025-01-01T03:25:45.510240,15.50662033,0.0007648,97.4101,330.6334,204.8891,155.1993,0,U,59061,999,4701,0.0021418,0.00124659,0.0,6792.928951772542,CubeSat,5571.816813933279,1.5477268927592442,421.92895177254195,6787.733719710226,6798.124183834858
BRITE-PL2 (HEWELIUSZ),2014-049B,2024-12-31T20:44:09.452256,14.91148914,0.001626,97.8868,106.0084,74.366,285.9351,0,U,40119,999,56201,0.00064812,6.393e-05,0.0,6972.488879611159,CubeSat,5794.193126574186,1.6094980907150516,601.4888796111591,6961.151612692911,6983.826146529406
SNAP-3 JIMI,2015-058M,2024-12-31T20:41:52.176480,14.92817304,0.0167748,64.769,93.5714,246.9146,111.4209,0,U,40975,999,3447,0.0017478,0.00023812,0.0,6967.292888291544,CubeSat,5787.717468873447,1.6076992969092907,596.2928882915439,6850.417943549031,7084.167833034057
DELFI-N3XT,2013-066N,2024-12-31T11:50:07.322784,14.84280922,0.0091025,97.8385,280.3747,165.2058,195.1852,0,U,39428,999,59529,0.0016651,0.00014993,0.0,6993.980832523326,CubeSat,5821.003733279382,1.616945481466495,622.9808325233262,6930.318121995282,7057.64354305137
NEE-02 KRYSAOR,2013-066AB,2024-12-31T06:35:09.636576,14.82715386,0.007175,97.843,301.3308,15.2986,345.0374,0,U,39441,999,59711,0.0009873,8.286e-05,0.0,6998.903064154119,CubeSat,5827.149883097904,1.6186527453049735,627.9030641541194,6948.685934668813,7049.1201936394245
DUCHIFAT-3,2019-089C,2024-12-31T21:09:50.194944,15.30078326,0.0012599,36.9504,277.8154,303.1274,56.8268,0,U,44854,999,27841,0.0018527,0.00055699,0.0,6853.715390126114,CubeSat,5646.772875205974,1.5685480208905482,482.71539012611356,6845.080394106094,6862.350386146133
PROMETHEUS 2-1,2016-067G,2025-01-01T00:24:11.695392,15.31633024,0.0009739,98.0906,197.7067,89.4729,270.7626,0,U,41854,999,44585,0.0020683,0.00063644,0.0,6849.076654471864,CubeSat,5641.041067156672,1.5669558519879645,478.07665447186355,6842.406338718074,6855.746970225653
CUBEBUG-2 (LO-74),2013-066AA,2024-12-31T13:59:05.142624,14.8731204,0.0065123,97.8344,306.7065,348.9371,11.0409,0,U,39440,999,59763,0.0015499,0.00014506,0.0,6984.475188387251,CubeSat,5809.140621357009,1.6136501725991692,613.4751883872514,6938.990190617917,7029.960186156586
AAUSAT-II,2008-021F,2024-12-30T16:59:13.873344,15.39440892,0.0004057,97.6043,349.3562,130.9842,229.1754,0,U,32788,999,90830,0.0025735,0.00101973,0.0,6825.898545447559,CubeSat,5612.430352536953,1.5590084312602648,454.8985454475587,6823.129278407671,6828.667812487446
UWE-3,2013-066AG,2024-12-31T19:43:44.558400,14.90232085,0.005433,97.8065,313.1254,289.3921,70.1429,0,U,39446,999,59809,0.0013607,0.00013531,0.0,6975.348355782979,CubeSat,5797.7578627944795,1.6104882952206887,604.3483557829786,6937.451288166009,7013.245423399948
UKUBE-1,2014-037F,2024-12-31T06:38:43.953504,15.00452365,0.0003271,98.3678,309.3963,94.0291,266.1305,0,U,40074,999,56826,0.0015977,0.00020086,0.0,6943.63738979986,CubeSat,5758.266633274535,1.5995185092429263,572.6373897998601,6941.366126009656,6945.908653590064
OPTICUBE 04,2016-067D,2025-01-01T01:51:17.211456,15.05518209,0.0018513,98.0854,180.9074,110.6144,249.7068,0,U,41851,999,44498,0.00059335,8.506e-05,0.0,6928.052439355376,CubeSat,5738.890925760542,1.5941363682668173,557.052439355376,6915.226535874397,6940.878342836355
