AAUSAT-II               
1 32788U 08021F   24365.70779946  .00101973  00000+0  25735-2 0  9992
2 32788  97.6043 349.3562 0004057 130.9842 229.1754 15.39440892908309
BEESAT-1                
1 35933U 09051C   24366.62807071  .00004037  00000+0  85010-3 0  9990
2 35933  98.4407 254.4097 0006696  80.7718 279.4238 14.60045994811429
TRITON-1                
1 39427U 13066M   25001.06384561  .00008251  00000+0  10821-2 0  9991
2 39427  97.8422 279.0357 0097761 162.5977 197.8624 14.77223105595580
DELFI-N3XT              
1 39428U 13066N   24366.49314031  .00014993  00000+0  16651-2 0  9994
2 39428  97.8385 280.3747 0091025 165.2058 195.1852 14.84280922595294
CUBEBUG-2 (LO-74)       
1 39440U 13066AA  24366.58269841  .00014506  00000+0  15499-2 0  9995
2 39440  97.8344 306.7065 0065123 348.9371  11.0409 14.87312040597631
NEE-02 KRYSAOR          
1 39441U 13066AB  24366.27441709  .00008286  00000+0  98730-3 0  9995
2 39441  97.8430 301.3308 0071750  15.2986 345.0374 14.82715386597117
UWE-3                   
1 39446U 13066AG  24366.82204350  .00013531  00000+0  13607-2 0  9998
2 39446  97.8065 313.1254 0054330 289.3921  70.1429 14.90232085598099
TIGRISAT                
1 40043U 14033AK  24366.88469199  .00006493  00000+0  81612-3 0  9999
2 40043  97.7120 161.6716 0053387  19.8727 340.4550 14.81404342566703
UKUBE-1                 
1 40074U 14037F   24366.27689761  .00020086  00000+0  15977-2 0  9993
2 40074  98.3678 309.3963 0003271  94.0291 266.1305 15.00452365568260
BRITE-PL2 (HEWELIUSZ)   
1 40119U 14049B   24366.86399829  .00006393  00000+0  64812-3 0  9992
2 40119  97.8868 106.0084 0016260  74.3660 285.9351 14.91148914562012
SNAP-3 JIMI             
1 40975U 15058M   24366.86240945  .00023812  00000+0  17478-2 0  9997
2 40975  64.7690  93.5714 0167748 246.9146 111.4209 14.92817304 34478
OPTICUBE 04             
1 41851U 16067D   25001.07728254  .00008506  00000+0  59335-3 0  9998
2 41851  98.0854 180.9074 0018513 110.6144 249.7068 15.05518209444980
AEROCUBE 8D             
1 41852U 16067E   24366.97087458  .00019303  00000+0  10781-2 0  9993
2 41852  98.1099 187.8853 0004699 147.5362 212.6157 15.13563753445257
PROMETHEUS 2-1          
1 41854U 16067G   25001.01680203  .00063644  00000+0  20683-2 0  9993
2 41854  98.0906 197.7067 0009739  89.4729 270.7626 15.31633024445854
DUCHIFAT-3              
1 44854U 19089C   24366.88183096  .00055699  00000+0  18527-2 0  9994
2 44854  36.9504 277.8154 0012599 303.1274  56.8268 15.30078326278416
NETSAT-4                
1 46504U 20068U   24366.85647267  .00029917  00000+0  12590-2 0  9997
2 46504  97.8296 330.6897 0010504  48.3444 311.8689 15.23283557234179
ROBUSTA-1E (ENSO)       
1 58470U 23185J   25001.12316627  .00059760  00000+0  16100-2 0  9995
2 58470  97.3998  73.2450 0008571 299.1586  60.8800 15.37587317 60390
SITRO-AIS 50            
1 59061U 24039L   25001.14288785  .00124659  00000+0  21418-2 0  9994
2 59061  97.4101 330.6334 0007648 204.8891 155.1993 15.50662033 47010
ROBUSTA-3A (MEDITERRAN*)
1 60243U 24128J   24365.75373882  .00021396  00000+0  16749-2 0  9994
2 60243  61.9910 279.6135 0031607   9.7768 350.3930 15.00669781 26059
